{
  "type": "FeatureCollection",
  "features": [
    {
      "type": "Feature",
      "properties": {
        "norad_id": 41599,
        "name": "CARTOSAT-2C",
        "group": "resource",
        "lat": 31.36147536180167,
        "lon": -118.1059520417999,
        "alt_km": 510.98684606841744,
        "timestamp": "2025-12-26T04:40:05.445537+00:00",
        "meta_object_name": "CARTOSAT-2C",
        "meta_object_id": "2016-040A",
        "meta_epoch": "2025-12-25T23:16:34.219200",
        "meta_mean_motion": 15.19234974,
        "meta_eccentricity": 0.00106337,
        "meta_inclination": 97.4746,
        "meta_ra_of_asc_node": 57.082,
        "meta_arg_of_pericenter": 20.9397,
        "meta_mean_anomaly": 339.227,
        "meta_ephemeris_type": 0,
        "meta_classification_type": "U",
        "meta_norad_cat_id": 41599,
        "meta_element_set_no": 999,
        "meta_rev_at_epoch": 52741,
        "meta_bstar": 0.00022879703,
        "meta_mean_motion_dot": 4.758e-05,
        "meta_mean_motion_ddot": 0,
        "tle_line1": "1 41599U 16040A   25359.96984050  .00004758  00000+0  22880-3 0  9990",
        "tle_line2": "2 41599  97.4746  57.0820 0010633  20.9397 339.2270 15.19234974527412"
      },
      "geometry": {
        "type": "Point",
        "coordinates": [
          -118.1059520417999,
          31.36147536180167
        ]
      }
    },
    {
      "type": "Feature",
      "properties": {
        "norad_id": 41601,
        "name": "SKYSAT-C1",
        "group": "resource",
        "lat": 43.93633055672779,
        "lon": -136.7703437031148,
        "alt_km": 464.3514066686803,
        "timestamp": "2025-12-26T04:40:05.445547+00:00",
        "meta_object_name": "SKYSAT-C1",
        "meta_object_id": "2016-040C",
        "meta_epoch": "2025-12-25T15:32:40.638048",
        "meta_mean_motion": 15.3282008,
        "meta_eccentricity": 8.71e-05,
        "meta_inclination": 96.9805,
        "meta_ra_of_asc_node": 35.9335,
        "meta_arg_of_pericenter": 317.384,
        "meta_mean_anomaly": 42.7336,
        "meta_ephemeris_type": 0,
        "meta_classification_type": "U",
        "meta_norad_cat_id": 41601,
        "meta_element_set_no": 999,
        "meta_rev_at_epoch": 53125,
        "meta_bstar": 0.00031619,
        "meta_mean_motion_dot": 9.953e-05,
        "meta_mean_motion_ddot": 0,
        "tle_line1": "1 41601U 16040C   25359.64769257  .00009953  00000+0  31619-3 0  9991",
        "tle_line2": "2 41601  96.9805  35.9335 0000871 317.3840  42.7336 15.32820080531251"
      },
      "geometry": {
        "type": "Point",
        "coordinates": [
          -136.7703437031148,
          43.93633055672779
        ]
      }
    },
    {
      "type": "Feature",
      "properties": {
        "norad_id": 41603,
        "name": "LAPAN-A3",
        "group": "resource",
        "lat": -45.68066435615485,
        "lon": 169.88301459285975,
        "alt_km": 474.01763573738936,
        "timestamp": "2025-12-26T04:40:05.445558+00:00",
        "meta_object_name": "LAPAN-A3",
        "meta_object_id": "2016-040E",
        "meta_epoch": "2025-12-25T22:58:46.500960",
        "meta_mean_motion": 15.31659854,
        "meta_eccentricity": 0.00086516,
        "meta_inclination": 97.1436,
        "meta_ra_of_asc_node": 357.0336,
        "meta_arg_of_pericenter": 278.7927,
        "meta_mean_anomaly": 81.2336,
        "meta_ephemeris_type": 0,
        "meta_classification_type": "U",
        "meta_norad_cat_id": 41603,
        "meta_element_set_no": 999,
        "meta_rev_at_epoch": 52828,
        "meta_bstar": 0.00015125392,
        "meta_mean_motion_dot": 4.554e-05,
        "meta_mean_motion_ddot": 0,
        "tle_line1": "1 41603U 16040E   25359.95748265  .00004554  00000+0  15125-3 0  9999",
        "tle_line2": "2 41603  97.1436 357.0336 0008651 278.7927  81.2336 15.31659854528280"
      },
      "geometry": {
        "type": "Point",
        "coordinates": [
          169.88301459285975,
          -45.68066435615485
        ]
      }
    },
    {
      "type": "Feature",
      "properties": {
        "norad_id": 41604,
        "name": "BIROS",
        "group": "resource",
        "lat": 72.0772508758313,
        "lon": -125.22905887006466,
        "alt_km": 278.1735469129444,
        "timestamp": "2025-12-26T04:40:05.445570+00:00",
        "meta_object_name": "BIROS",
        "meta_object_id": "2016-040F",
        "meta_epoch": "2025-12-25T01:07:09.917184",
        "meta_mean_motion": 15.94683958,
        "meta_eccentricity": 0.00039046,
        "meta_inclination": 97.0657,
        "meta_ra_of_asc_node": 31.0163,
        "meta_arg_of_pericenter": 124.4663,
        "meta_mean_anomaly": 235.6982,
        "meta_ephemeris_type": 0,
        "meta_classification_type": "U",
        "meta_norad_cat_id": 41604,
        "meta_element_set_no": 999,
        "meta_rev_at_epoch": 53068,
        "meta_bstar": 0.0006151692,
        "meta_mean_motion_dot": 0.00232464,
        "meta_mean_motion_ddot": 2.2718232e-05,
        "tle_line1": "1 41604U 16040F   25359.04664256  .00232464  22718-4  61517-3 0  9991",
        "tle_line2": "2 41604  97.0657  31.0163 0003904 124.4663 235.6982 15.94683958530682"
      },
      "geometry": {
        "type": "Point",
        "coordinates": [
          -125.22905887006466,
          72.0772508758313
        ]
      }
    },
    {
      "type": "Feature",
      "properties": {
        "norad_id": 41727,
        "name": "GAOFEN-3",
        "group": "resource",
        "lat": 1.0984115617446832,
        "lon": 5.412665075553961,
        "alt_km": 753.5491815261466,
        "timestamp": "2025-12-26T04:40:05.445580+00:00",
        "meta_object_name": "GAOFEN-3",
        "meta_object_id": "2016-049A",
        "meta_epoch": "2025-12-25T23:40:04.192896",
        "meta_mean_motion": 14.42216411,
        "meta_eccentricity": 0.00010568,
        "meta_inclination": 98.4039,
        "meta_ra_of_asc_node": 5.3699,
        "meta_arg_of_pericenter": 55.5793,
        "meta_mean_anomaly": 304.5497,
        "meta_ephemeris_type": 0,
        "meta_classification_type": "U",
        "meta_norad_cat_id": 41727,
        "meta_element_set_no": 999,
        "meta_rev_at_epoch": 49368,
        "meta_bstar": -1.166198e-06,
        "meta_mean_motion_dot": -4.7e-07,
        "meta_mean_motion_ddot": 0,
        "tle_line1": "1 41727U 16049A   25359.98615964 -.00000047  00000+0 -11662-5 0  9996",
        "tle_line2": "2 41727  98.4039   5.3699 0001056  55.5793 304.5497 14.42216411493682"
      },
      "geometry": {
        "type": "Point",
        "coordinates": [
          5.412665075553961,
          1.0984115617446832
        ]
      }
    },
    {
      "type": "Feature",
      "properties": {
        "norad_id": 41771,
        "name": "SKYSAT-C4",
        "group": "resource",
        "lat": -1.381341690119369,
        "lon": -155.43900074818995,
        "alt_km": 440.7655977633067,
        "timestamp": "2025-12-26T04:40:05.445590+00:00",
        "meta_object_name": "SKYSAT-C4",
        "meta_object_id": "2016-058B",
        "meta_epoch": "2025-12-25T23:12:52.648992",
        "meta_mean_motion": 15.42625252,
        "meta_eccentricity": 0.00026162,
        "meta_inclination": 96.9364,
        "meta_ra_of_asc_node": 24.5129,
        "meta_arg_of_pericenter": 122.0395,
        "meta_mean_anomaly": 238.1108,
        "meta_ephemeris_type": 0,
        "meta_classification_type": "U",
        "meta_norad_cat_id": 41771,
        "meta_element_set_no": 999,
        "meta_rev_at_epoch": 51871,
        "meta_bstar": 0.00035043664,
        "meta_mean_motion_dot": 0.00015184,
        "meta_mean_motion_ddot": 0,
        "tle_line1": "1 41771U 16058B   25359.96727603  .00015184  00000+0  35044-3 0  9991",
        "tle_line2": "2 41771  96.9364  24.5129 0002616 122.0395 238.1108 15.42625252518718"
      },
      "geometry": {
        "type": "Point",
        "coordinates": [
          -155.43900074818995,
          -1.381341690119369
        ]
      }
    },
    {
      "type": "Feature",
      "properties": {
        "norad_id": 41772,
        "name": "SKYSAT-C5",
        "group": "resource",
        "lat": 51.42389310239081,
        "lon": 34.42631061962196,
        "alt_km": 461.5810354103305,
        "timestamp": "2025-12-26T04:40:05.445600+00:00",
        "meta_object_name": "SKYSAT-C5",
        "meta_object_id": "2016-058C",
        "meta_epoch": "2025-12-25T15:55:07.253760",
        "meta_mean_motion": 15.34107914,
        "meta_eccentricity": 0.00040147,
        "meta_inclination": 97.0737,
        "meta_ra_of_asc_node": 42.874,
        "meta_arg_of_pericenter": 228.3767,
        "meta_mean_anomaly": 131.7134,
        "meta_ephemeris_type": 0,
        "meta_classification_type": "U",
        "meta_norad_cat_id": 41772,
        "meta_element_set_no": 999,
        "meta_rev_at_epoch": 51714,
        "meta_bstar": 0.00030794482,
        "meta_mean_motion_dot": 0.00010094,
        "meta_mean_motion_ddot": 0,
        "tle_line1": "1 41772U 16058C   25359.66327840  .00010094  00000+0  30794-3 0  9990",
        "tle_line2": "2 41772  97.0737  42.8740 0004014 228.3767 131.7134 15.34107914517148"
      },
      "geometry": {
        "type": "Point",
        "coordinates": [
          34.42631061962196,
          51.42389310239081
        ]
      }
    }
  ]
}